<?xml version="1.0" encoding="UTF-8"?>
<ndm xmlns:xsi="http://www.w3.org/2001/XMLSchema-instance" xsi:noNamespaceSchemaLocation="https://sanaregistry.org/r/ndmxml_unqualified/ndmxml-2.0.0-master-2.0.xsd">
<omm id="CCSDS_OMM_VERS" version="2.0">
<header><CREATION_DATE/><ORIGINATOR/></header><body><segment><metadata><OBJECT_NAME>ONEWEB-0452</OBJECT_NAME><OBJECT_ID>2022-012Y</OBJECT_ID><CENTER_NAME>EARTH</CENTER_NAME><REF_FRAME>TEME</REF_FRAME><TIME_SYSTEM>UTC</TIME_SYSTEM><MEAN_ELEMENT_THEORY>SGP4</MEAN_ELEMENT_THEORY></metadata><data><meanElements><EPOCH>2023-09-22T20:58:02.990208</EPOCH><MEAN_MOTION>13.17647579</MEAN_MOTION><ECCENTRICITY>.0001838</ECCENTRICITY><INCLINATION>87.9237</INCLINATION><RA_OF_ASC_NODE>204.2559</RA_OF_ASC_NODE><ARG_OF_PERICENTER>92.7377</ARG_OF_PERICENTER><MEAN_ANOMALY>267.3964</MEAN_ANOMALY></meanElements><tleParameters><EPHEMERIS_TYPE>0</EPHEMERIS_TYPE><CLASSIFICATION_TYPE>U</CLASSIFICATION_TYPE><NORAD_CAT_ID>51644</NORAD_CAT_ID><ELEMENT_SET_NO>999</ELEMENT_SET_NO><REV_AT_EPOCH>8220</REV_AT_EPOCH><BSTAR>.20275E-3</BSTAR><MEAN_MOTION_DOT>.92E-6</MEAN_MOTION_DOT><MEAN_MOTION_DDOT>0</MEAN_MOTION_DDOT></tleParameters></data></segment></body></omm>
<omm id="CCSDS_OMM_VERS" version="2.0">
<header><CREATION_DATE/><ORIGINATOR/></header><body><segment><metadata><OBJECT_NAME>ONEWEB-0455</OBJECT_NAME><OBJECT_ID>2022-012Z</OBJECT_ID><CENTER_NAME>EARTH</CENTER_NAME><REF_FRAME>TEME</REF_FRAME><TIME_SYSTEM>UTC</TIME_SYSTEM><MEAN_ELEMENT_THEORY>SGP4</MEAN_ELEMENT_THEORY></metadata><data><meanElements><EPOCH>2023-09-22T20:38:26.524608</EPOCH><MEAN_MOTION>14.22582834</MEAN_MOTION><ECCENTRICITY>.0018571</ECCENTRICITY><INCLINATION>87.5410</INCLINATION><RA_OF_ASC_NODE>193.2863</RA_OF_ASC_NODE><ARG_OF_PERICENTER>130.5721</ARG_OF_PERICENTER><MEAN_ANOMALY>229.7089</MEAN_ANOMALY></meanElements><tleParameters><EPHEMERIS_TYPE>0</EPHEMERIS_TYPE><CLASSIFICATION_TYPE>U</CLASSIFICATION_TYPE><NORAD_CAT_ID>51645</NORAD_CAT_ID><ELEMENT_SET_NO>999</ELEMENT_SET_NO><REV_AT_EPOCH>8415</REV_AT_EPOCH><BSTAR>.24007E-3</BSTAR><MEAN_MOTION_DOT>.555E-5</MEAN_MOTION_DOT><MEAN_MOTION_DDOT>0</MEAN_MOTION_DDOT></tleParameters></data></segment></body></omm>
<omm id="CCSDS_OMM_VERS" version="2.0">
<header><CREATION_DATE/><ORIGINATOR/></header><body><segment><metadata><OBJECT_NAME>ONEWEB-0456</OBJECT_NAME><OBJECT_ID>2022-012AA</OBJECT_ID><CENTER_NAME>EARTH</CENTER_NAME><REF_FRAME>TEME</REF_FRAME><TIME_SYSTEM>UTC</TIME_SYSTEM><MEAN_ELEMENT_THEORY>SGP4</MEAN_ELEMENT_THEORY></metadata><data><meanElements><EPOCH>2023-09-22T21:24:58.251168</EPOCH><MEAN_MOTION>13.10377611</MEAN_MOTION><ECCENTRICITY>.0002258</ECCENTRICITY><INCLINATION>87.8853</INCLINATION><RA_OF_ASC_NODE>234.4984</RA_OF_ASC_NODE><ARG_OF_PERICENTER>76.2417</ARG_OF_PERICENTER><MEAN_ANOMALY>283.8962</MEAN_ANOMALY></meanElements><tleParameters><EPHEMERIS_TYPE>0</EPHEMERIS_TYPE><CLASSIFICATION_TYPE>U</CLASSIFICATION_TYPE><NORAD_CAT_ID>51646</NORAD_CAT_ID><ELEMENT_SET_NO>999</ELEMENT_SET_NO><REV_AT_EPOCH>7860</REV_AT_EPOCH><BSTAR>.60563E-3</BSTAR><MEAN_MOTION_DOT>.224E-5</MEAN_MOTION_DOT><MEAN_MOTION_DDOT>0</MEAN_MOTION_DDOT></tleParameters></data></segment></body></omm>
<omm id="CCSDS_OMM_VERS" version="2.0">
<header><CREATION_DATE/><ORIGINATOR/></header><body><segment><metadata><OBJECT_NAME>ONEWEB-0457</OBJECT_NAME><OBJECT_ID>2022-012AB</OBJECT_ID><CENTER_NAME>EARTH</CENTER_NAME><REF_FRAME>TEME</REF_FRAME><TIME_SYSTEM>UTC</TIME_SYSTEM><MEAN_ELEMENT_THEORY>SGP4</MEAN_ELEMENT_THEORY></metadata><data><meanElements><EPOCH>2023-09-22T20:52:11.793216</EPOCH><MEAN_MOTION>13.10370538</MEAN_MOTION><ECCENTRICITY>.0001732</ECCENTRICITY><INCLINATION>87.8848</INCLINATION><RA_OF_ASC_NODE>234.5059</RA_OF_ASC_NODE><ARG_OF_PERICENTER>84.8383</ARG_OF_PERICENTER><MEAN_ANOMALY>275.2942</MEAN_ANOMALY></meanElements><tleParameters><EPHEMERIS_TYPE>0</EPHEMERIS_TYPE><CLASSIFICATION_TYPE>U</CLASSIFICATION_TYPE><NORAD_CAT_ID>51647</NORAD_CAT_ID><ELEMENT_SET_NO>999</ELEMENT_SET_NO><REV_AT_EPOCH>7860</REV_AT_EPOCH><BSTAR>-.18019E-2</BSTAR><MEAN_MOTION_DOT>-.616E-5</MEAN_MOTION_DOT><MEAN_MOTION_DDOT>0</MEAN_MOTION_DDOT></tleParameters></data></segment></body></omm>
<omm id="CCSDS_OMM_VERS" version="2.0">
<header><CREATION_DATE/><ORIGINATOR/></header><body><segment><metadata><OBJECT_NAME>ONEWEB-0458</OBJECT_NAME><OBJECT_ID>2022-012AC</OBJECT_ID><CENTER_NAME>EARTH</CENTER_NAME><REF_FRAME>TEME</REF_FRAME><TIME_SYSTEM>UTC</TIME_SYSTEM><MEAN_ELEMENT_THEORY>SGP4</MEAN_ELEMENT_THEORY></metadata><data><meanElements><EPOCH>2023-09-22T21:22:37.411392</EPOCH><MEAN_MOTION>13.10377516</MEAN_MOTION><ECCENTRICITY>.0002161</ECCENTRICITY><INCLINATION>87.8855</INCLINATION><RA_OF_ASC_NODE>234.5144</RA_OF_ASC_NODE><ARG_OF_PERICENTER>88.0762</ARG_OF_PERICENTER><MEAN_ANOMALY>272.0612</MEAN_ANOMALY></meanElements><tleParameters><EPHEMERIS_TYPE>0</EPHEMERIS_TYPE><CLASSIFICATION_TYPE>U</CLASSIFICATION_TYPE><NORAD_CAT_ID>51648</NORAD_CAT_ID><ELEMENT_SET_NO>999</ELEMENT_SET_NO><REV_AT_EPOCH>7856</REV_AT_EPOCH><BSTAR>.33818E-3</BSTAR><MEAN_MOTION_DOT>.131E-5</MEAN_MOTION_DOT><MEAN_MOTION_DDOT>0</MEAN_MOTION_DDOT></tleParameters></data></segment></body></omm>
<omm id="CCSDS_OMM_VERS" version="2.0">
<header><CREATION_DATE/><ORIGINATOR/></header><body><segment><metadata><OBJECT_NAME>ONEWEB-0461</OBJECT_NAME><OBJECT_ID>2022-012AD</OBJECT_ID><CENTER_NAME>EARTH</CENTER_NAME><REF_FRAME>TEME</REF_FRAME><TIME_SYSTEM>UTC</TIME_SYSTEM><MEAN_ELEMENT_THEORY>SGP4</MEAN_ELEMENT_THEORY></metadata><data><meanElements><EPOCH>2023-09-22T21:28:26.556384</EPOCH><MEAN_MOTION>13.17647523</MEAN_MOTION><ECCENTRICITY>.0001863</ECCENTRICITY><INCLINATION>87.9348</INCLINATION><RA_OF_ASC_NODE>204.2148</RA_OF_ASC_NODE><ARG_OF_PERICENTER>79.7997</ARG_OF_PERICENTER><MEAN_ANOMALY>280.3345</MEAN_ANOMALY></meanElements><tleParameters><EPHEMERIS_TYPE>0</EPHEMERIS_TYPE><CLASSIFICATION_TYPE>U</CLASSIFICATION_TYPE><NORAD_CAT_ID>51649</NORAD_CAT_ID><ELEMENT_SET_NO>999</ELEMENT_SET_NO><REV_AT_EPOCH>8242</REV_AT_EPOCH><BSTAR>.28447E-3</BSTAR><MEAN_MOTION_DOT>.123E-5</MEAN_MOTION_DOT><MEAN_MOTION_DDOT>0</MEAN_MOTION_DDOT></tleParameters></data></segment></body></omm>
<omm id="CCSDS_OMM_VERS" version="2.0">
<header><CREATION_DATE/><ORIGINATOR/></header><body><segment><metadata><OBJECT_NAME>ONEWEB-0463</OBJECT_NAME><OBJECT_ID>2022-012AE</OBJECT_ID><CENTER_NAME>EARTH</CENTER_NAME><REF_FRAME>TEME</REF_FRAME><TIME_SYSTEM>UTC</TIME_SYSTEM><MEAN_ELEMENT_THEORY>SGP4</MEAN_ELEMENT_THEORY></metadata><data><meanElements><EPOCH>2023-09-22T19:14:47.873472</EPOCH><MEAN_MOTION>13.17648596</MEAN_MOTION><ECCENTRICITY>.0001812</ECCENTRICITY><INCLINATION>87.9237</INCLINATION><RA_OF_ASC_NODE>204.2849</RA_OF_ASC_NODE><ARG_OF_PERICENTER>78.6585</ARG_OF_PERICENTER><MEAN_ANOMALY>281.4750</MEAN_ANOMALY></meanElements><tleParameters><EPHEMERIS_TYPE>0</EPHEMERIS_TYPE><CLASSIFICATION_TYPE>U</CLASSIFICATION_TYPE><NORAD_CAT_ID>51650</NORAD_CAT_ID><ELEMENT_SET_NO>999</ELEMENT_SET_NO><REV_AT_EPOCH>8219</REV_AT_EPOCH><BSTAR>.10353E-3</BSTAR><MEAN_MOTION_DOT>.53E-6</MEAN_MOTION_DOT><MEAN_MOTION_DDOT>0</MEAN_MOTION_DDOT></tleParameters></data></segment></body></omm>
<omm id="CCSDS_OMM_VERS" version="2.0">
<header><CREATION_DATE/><ORIGINATOR/></header><body><segment><metadata><OBJECT_NAME>ONEWEB-0464</OBJECT_NAME><OBJECT_ID>2022-012AF</OBJECT_ID><CENTER_NAME>EARTH</CENTER_NAME><REF_FRAME>TEME</REF_FRAME><TIME_SYSTEM>UTC</TIME_SYSTEM><MEAN_ELEMENT_THEORY>SGP4</MEAN_ELEMENT_THEORY></metadata><data><meanElements><EPOCH>2023-09-22T21:17:54.788352</EPOCH><MEAN_MOTION>13.10382202</MEAN_MOTION><ECCENTRICITY>.0002648</ECCENTRICITY><INCLINATION>87.8856</INCLINATION><RA_OF_ASC_NODE>234.5034</RA_OF_ASC_NODE><ARG_OF_PERICENTER>76.8605</ARG_OF_PERICENTER><MEAN_ANOMALY>283.2818</MEAN_ANOMALY></meanElements><tleParameters><EPHEMERIS_TYPE>0</EPHEMERIS_TYPE><CLASSIFICATION_TYPE>U</CLASSIFICATION_TYPE><NORAD_CAT_ID>51651</NORAD_CAT_ID><ELEMENT_SET_NO>999</ELEMENT_SET_NO><REV_AT_EPOCH>7858</REV_AT_EPOCH><BSTAR>-.51985E-2</BSTAR><MEAN_MOTION_DOT>-.1802E-4</MEAN_MOTION_DOT><MEAN_MOTION_DDOT>0</MEAN_MOTION_DDOT></tleParameters></data></segment></body></omm>
<omm id="CCSDS_OMM_VERS" version="2.0">
<header><CREATION_DATE/><ORIGINATOR/></header><body><segment><metadata><OBJECT_NAME>ONEWEB-0468</OBJECT_NAME><OBJECT_ID>2022-012AG</OBJECT_ID><CENTER_NAME>EARTH</CENTER_NAME><REF_FRAME>TEME</REF_FRAME><TIME_SYSTEM>UTC</TIME_SYSTEM><MEAN_ELEMENT_THEORY>SGP4</MEAN_ELEMENT_THEORY></metadata><data><meanElements><EPOCH>2023-09-22T21:27:17.764704</EPOCH><MEAN_MOTION>13.10373632</MEAN_MOTION><ECCENTRICITY>.0002063</ECCENTRICITY><INCLINATION>87.8853</INCLINATION><RA_OF_ASC_NODE>234.4954</RA_OF_ASC_NODE><ARG_OF_PERICENTER>84.7315</ARG_OF_PERICENTER><MEAN_ANOMALY>275.4048</MEAN_ANOMALY></meanElements><tleParameters><EPHEMERIS_TYPE>0</EPHEMERIS_TYPE><CLASSIFICATION_TYPE>U</CLASSIFICATION_TYPE><NORAD_CAT_ID>51652</NORAD_CAT_ID><ELEMENT_SET_NO>999</ELEMENT_SET_NO><REV_AT_EPOCH>7856</REV_AT_EPOCH><BSTAR>.84683E-3</BSTAR><MEAN_MOTION_DOT>.308E-5</MEAN_MOTION_DOT><MEAN_MOTION_DDOT>0</MEAN_MOTION_DDOT></tleParameters></data></segment></body></omm>

</ndm>
